NORAD_CAT_ID,OBJECT_NAME,OBJECT_TYPE,EPOCH,MEAN_MOTION,ECCENTRICITY,INCLINATION,RA_OF_ASC_NODE,ARG_OF_PERICENTER,MEAN_ANOMALY,BSTAR,MEAN_MOTION_DOT,MEAN_MOTION_DDOT,TLE_LINE0,TLE_LINE1,TLE_LINE2,SEMIMAJOR_AXIS,PERIOD,APOGEE,PERIGEE,DECAYED
49725.0,STARLINK-3218,PAYLOAD,2022-01-03 22:00:00,15.40429339,0.0001941,53.2148,166.5995,40.4258,227.7701,0.0013250999999999,0.00054421,0.0,0 STARLINK-3218,1 49725U 21115B   22003.91667824  .00054421  00000-0  13251-2 0  9997,2 49725  53.2148 166.5995 0001941  40.4258 227.7701 15.40429339  3639,6822.978,93.48,446.168,443.519,0.0
49725.0,STARLINK-3218,PAYLOAD,2022-01-04 04:00:01,15.40466467,0.0001823,53.2152,165.4201,44.1562,171.2822,-0.00027359,-0.00011639,0.0,0 STARLINK-3218,1 49725U 21115B   22004.16668981 -.00011639  00000-0 -27359-3 0  9991,2 49725  53.2152 165.4201 0001823  44.1562 171.2822 15.40466467  6239,6822.869000000002,93.478,445.977,443.49,0.0
49725.0,STARLINK-3218,PAYLOAD,2022-01-04 14:00:01,15.40485041,0.0001928,53.2157,163.4573,47.4303,319.9313,-0.0013165999999999,-0.00054208,0.0,0 STARLINK-3218,1 49725U 21115B   22004.58334491 -.00054208  00000-0 -13166-2 0  9992,2 49725  53.2157 163.4573 0001928  47.4303 319.9313 15.40485041  3624,6822.814,93.477,445.994,443.36300000000006,0.0
49725.0,STARLINK-3218,PAYLOAD,2022-01-04 20:11:50,15.40462726,0.0001957,53.2176,162.241,42.512,317.6037,-3.3757e-06,-5.42e-06,0.0,0 STARLINK-3218,1 49725U 21115B   22004.84155566 -.00000542  00000-0 -33757-5 0  9998,2 49725  53.2176 162.2410 0001957  42.5120 317.6037 15.40462726  5228,6822.88,93.478,446.08,443.409,0.0
49725.0,STARLINK-3218,PAYLOAD,2022-01-05 04:00:00,15.40468436,0.000196,53.2162,160.7086,46.3612,317.7805,-0.00033226,-0.00014046,0.0,0 STARLINK-3218,1 49725U 21115B   22005.16667824 -.00014046  00000-0 -33226-3 0  9992,2 49725  53.2162 160.7086 0001960  46.3612 317.7805 15.40468436  6383,6822.863,93.478,446.065,443.391,0.0
49725.0,STARLINK-3218,PAYLOAD,2022-01-05 14:00:01,15.40463902,0.0002001,53.2165,158.746,45.7198,110.4145,-0.00052233,-0.00021825,0.0,0 STARLINK-3218,1 49725U 21115B   22005.58334491 -.00021825  00000-0 -52233-3 0  9991,2 49725  53.2165 158.7460 0002001  45.7198 110.4145 15.40463902  3619,6822.876,93.478,446.106,443.376,0.0
49725.0,STARLINK-3218,PAYLOAD,2022-01-05 22:00:00,15.40455064,0.0002099,53.2164,157.1765,40.0261,165.6905,6.3868e-05,2.223e-05,0.0,0 STARLINK-3218,1 49725U 21115B   22005.91667824  .00002223  00000-0  63868-4 0  9993,2 49725  53.2164 157.1765 0002099  40.0261 165.6905 15.40455064  3644,6822.901999999999,93.479,446.199,443.335,0.0
49725.0,STARLINK-3218,PAYLOAD,2022-01-06 12:00:00,15.40457708,0.0001979,53.2169,154.4268,44.2245,158.2442,-0.00020112,-8.664e-05,0.0,0 STARLINK-3218,1 49725U 21115B   22006.50001157 -.00008664  00000-0 -20112-3 0  9991,2 49725  53.2169 154.4268 0001979  44.2245 158.2442 15.40457708  6599,6822.894,93.479,446.11,443.409,0.0
49725.0,STARLINK-3218,PAYLOAD,2022-01-06 14:00:01,15.40460829,0.0002043,53.2168,154.0348,42.1957,262.66700000000003,-0.0004883,-0.00020431,0.0,0 STARLINK-3218,1 49725U 21115B   22006.58334491 -.00020431  00000-0 -48830-3 0  9992,2 49725  53.2168 154.0348 0002043  42.1957 262.6670 15.40460829  3614,6822.885,93.479,446.144,443.356,0.0
49725.0,STARLINK-3218,PAYLOAD,2022-01-06 22:00:00,15.40447526,0.0002171,53.2164,152.465,37.6887,316.7532,0.00066001,0.00026822,0.0,0 STARLINK-3218,1 49725U 21115B   22006.91667824  .00026822  00000-0  66001-3 0  9996,2 49725  53.2164 152.4650 0002171  37.6887 316.7532 15.40447526  3652,6822.925,93.479,446.271,443.3080000000001,0.0
49725.0,STARLINK-3218,PAYLOAD,2022-01-07 12:00:02,15.40491182,0.0002044,53.2165,149.7156,43.2245,308.0566,-0.00056444,-0.00023568,0.0,0 STARLINK-3218,1 49725U 21115B   22007.50002315 -.00023568  00000-0 -56444-3 0  9996,2 49725  53.2165 149.7156 0002044  43.2245 308.0566 15.40491182  6744,6822.795999999999,93.477,446.055,443.266,0.0
49725.0,STARLINK-3218,PAYLOAD,2022-01-07 14:00:01,15.40494479,0.0002115,53.2163,149.3237,41.6432,51.9773,-0.00097162,-0.00040196,0.0,0 STARLINK-3218,1 49725U 21115B   22007.58334491 -.00040196  00000-0 -97162-3 0  9995,2 49725  53.2163 149.3237 0002115  41.6432  51.9773 15.40494479  3616,6822.786,93.476,446.094,443.208,0.0
49725.0,STARLINK-3218,PAYLOAD,2022-01-07 22:00:00,15.40463667,0.0002178,53.2157,147.7536,37.5853,105.6512,4.1444e-05,1.301e-05,0.0,0 STARLINK-3218,1 49725U 21115B   22007.91667824  .00001301  00000-0  41444-4 0  9997,2 49725  53.2157 147.7536 0002178  37.5853 105.6512 15.40463667  3616,6822.877,93.478,446.228,443.256,0.0
49725.0,STARLINK-3218,PAYLOAD,2022-01-08 14:00:01,15.40365335,0.0002166,53.2173,144.6083,39.0655,203.3562,0.0035056,0.00146083,0.0,0 STARLINK-3218,1 49725U 21115B   22008.58334491  .00146083  00000-0  35056-2 0  9999,2 49725  53.2173 144.6083 0002166  39.0655 203.3562 15.40365335  3626,6823.167,93.484,446.51,443.554,0.0
49725.0,STARLINK-3218,PAYLOAD,2022-01-08 20:00:01,15.40454952,0.0002124,53.2154,143.435,35.6396,154.0047,0.0005701,0.00023107,0.0,0 STARLINK-3218,1 49725U 21115B   22008.83334491  .00023107  00000-0  57010-3 0  9993,2 49725  53.2154 143.4350 0002124  35.6396 154.0047 15.40454952  6949,6822.903,93.479,446.217,443.318,0.0
49725.0,STARLINK-3218,PAYLOAD,2022-01-08 22:00:00,15.40468142,0.0002086,53.2151,143.0419,35.3356,256.7038,-0.00010055,-4.537e-05,0.0,0 STARLINK-3218,1 49725U 21115B   22008.91667824 -.00004537  00000-0 -10055-3 0  9997,2 49725  53.2151 143.0419 0002086  35.3356 256.7038 15.40468142  3637,6822.864000000001,93.478,446.152,443.305,0.0
49725.0,STARLINK-3218,PAYLOAD,2022-01-09 12:00:02,15.4047825,0.0001911,53.2155,140.2925,36.7895,252.1201,-0.00051047,-0.00021349,0.0,0 STARLINK-3218,1 49725U 21115B   22009.50002315 -.00021349  00000-0 -51047-3 0  9997,2 49725  53.2155 140.2925 0001911  36.7895 252.1201 15.40478250  7054,6822.834,93.477,446.003,443.395,0.0
49725.0,STARLINK-3218,PAYLOAD,2022-01-09 14:00:01,15.40483177,0.0001981,53.2155,139.9004,34.4159,356.8474,-0.00015262,-6.679e-05,0.0,0 STARLINK-3218,1 49725U 21115B   22009.58334491 -.00006679  00000-0 -15262-3 0  9996,2 49725  53.2155 139.9004 0001981  34.4159 356.8474 15.40483177  3629,6822.819,93.477,446.036,443.333,0.0
49725.0,STARLINK-3218,PAYLOAD,2022-01-09 20:00:01,15.40488312,0.0002061,53.2154,138.7231,29.0539,309.4331,0.00043029,0.00017347,0.0,0 STARLINK-3218,1 49725U 21115B   22009.83334491  .00017347  00000-0  43029-3 0  9998,2 49725  53.2154 138.7231 0002061  29.0539 309.4331 15.40488312  7108,6822.804,93.477,446.075,443.263,0.0
49725.0,STARLINK-3218,PAYLOAD,2022-01-09 22:00:00,15.40510053,0.000205,53.2153,138.33,28.9533,51.9355,-0.0007218,-0.00030019,0.0,0 STARLINK-3218,1 49725U 21115B   22009.91667824 -.00030019  00000-0 -72180-3 0  9999,2 49725  53.2153 138.3300 0002050  28.9533  51.9355 15.40510053  3637,6822.74,93.476,446.004,443.206,0.0
49725.0,STARLINK-3218,PAYLOAD,2022-01-10 04:00:00,15.40473326,0.0001799,53.2156,137.1505,30.1995,357.9177,-0.0001494,-6.545e-05,0.0,0 STARLINK-3218,1 49725U 21115B   22010.16667824 -.00006545  00000-0 -14940-3 0  9995,2 49725  53.2156 137.1505 0001799  30.1995 357.9177 15.40473326  7153,6822.848000000001,93.478,445.941,443.486,0.0
49725.0,STARLINK-3218,PAYLOAD,2022-01-10 14:00:01,15.40467241,0.0002036,53.2157,135.1886,30.2758,149.8398,-0.0017634,-0.00072256,0.0,0 STARLINK-3218,1 49725U 21115B   22010.58334491 -.00072256  00000-0 -17634-2 0  9996,2 49725  53.2157 135.1886 0002036  30.2758 149.8398 15.40467241  3638,6822.866,93.478,446.12,443.342,0.0
49725.0,STARLINK-3218,PAYLOAD,2022-01-10 20:00:01,15.40414584,0.0002154,53.2158,134.0111,28.0134,99.3512,4.6388e-06,-2.13e-06,0.0,0 STARLINK-3218,1 49725U 21115B   22010.83335648 -.00000213  00000-0  46388-5 0  9993,2 49725  53.2158 134.0111 0002154  28.0134  99.3512 15.40414584  7253,6823.022,93.481,446.356,443.417,0.0
49725.0,STARLINK-3218,PAYLOAD,2022-01-10 22:00:00,15.40425723,0.0002126,53.2158,133.6182,28.6401,201.0406,-0.00063956,-0.00026583,0.0,0 STARLINK-3218,1 49725U 21115B   22010.91667824 -.00026583  00000-0 -63956-3 0  9993,2 49725  53.2158 133.6182 0002126  28.6401 201.0406 15.40425723  3648,6822.989000000001,93.481,446.304,443.403,0.0
49725.0,STARLINK-3218,PAYLOAD,2022-01-11 12:00:00,15.40445333,0.0002162,53.2164,130.8694,33.3157,193.0558,2.7452e-05,7.25e-06,0.0,0 STARLINK-3218,1 49725U 21115B   22011.50001157  .00000725  00000-0  27452-4 0  9990,2 49725  53.2164 130.8694 0002162  33.3157 193.0558 15.40445333  7363,6822.931,93.479,446.271,443.321,0.0
49725.0,STARLINK-3218,PAYLOAD,2022-01-11 14:00:01,15.40443674,0.0002257,53.2162,130.4772,32.3059,296.4583,0.00018077,7.033e-05,0.0,0 STARLINK-3218,1 49725U 21115B   22011.58334491  .00007033  00000-0  18077-3 0  9999,2 49725  53.2162 130.4772 0002257  32.3059 296.4583 15.40443674  3637,6822.936,93.48,446.341,443.261,0.0
49725.0,STARLINK-3218,PAYLOAD,2022-01-11 22:00:00,15.40483362,0.0002294,53.2162,128.9065,29.1456,349.1847,-0.00066675,-0.00027745,0.0,0 STARLINK-3218,1 49725U 21115B   22011.91667824 -.00027745  00000-0 -66675-3 0  9996,2 49725  53.2162 128.9065 0002294  29.1456 349.1847 15.40483362  3637,6822.819,93.477,446.249,443.119,0.0
49725.0,STARLINK-3218,PAYLOAD,2022-01-12 12:00:00,15.40458461,0.0002322,53.2164,126.1579,32.5015,342.6289,-0.00016874,-7.336e-05,0.0,0 STARLINK-3218,1 49725U 21115B   22012.50001157 -.00007336  00000-0 -16874-3 0  9993,2 49725  53.2164 126.1579 0002322  32.5015 342.6289 15.40458461  7511,6822.892,93.479,446.342,443.173,0.0
49725.0,STARLINK-3218,PAYLOAD,2022-01-12 14:00:01,15.40453425,0.000241,53.2162,125.7657,31.959,85.5681,0.00011823,4.46e-05,0.0,0 STARLINK-3218,1 49725U 21115B   22012.58334491  .00004460  00000-0  11823-3 0  9993,2 49725  53.2162 125.7657 0002410  31.9590  85.5681 15.40453425  3655,6822.906999999997,93.479,446.416,443.128,0.0
